start=new Date('2022-07-08T00:00:00.000Z').valueOf();
sats=[{"EPHEMERIS_TYPE":"0","SITE":"AFWTR","OBJECT_ID":"2021-082AZ","GP_ID":"207632052","MEAN_MOTION_DOT":"0.00000960","APOAPSIS":"578.925","MEAN_ELEMENT_THEORY":"SGP4","REF_FRAME":"TEME","RA_OF_ASC_NODE":"34.5219","PERIAPSIS":"575.125","CLASSIFICATION_TYPE":"U","ELEMENT_SET_NO":"999","REV_AT_EPOCH":"4733","LAUNCH_DATE":"2021-09-14","BSTAR":"0.00009180000000","ECCENTRICITY":"0.00027320","TLE_LINE1":"1 49177U 21082AZ  22188.88708956  .00000960  00000-0  91800-4 0  9990","TLE_LINE2":"2 49177  69.9976  34.5219 0002732 260.6057  99.4792 14.96725271 47331","FILE":"3509470","MEAN_MOTION_DDOT":"0.0000000000000","TIME_SYSTEM":"UTC","COUNTRY_CODE":"US","NORAD_CAT_ID":"49177","PERIOD":"96.210","ARG_OF_PERICENTER":"260.6057","OBJECT_NAME":"STARLINK-3103","OBJECT_TYPE":"PAYLOAD","MEAN_MOTION":"14.96725271","INCLINATION":"69.9976","CENTER_NAME":"EARTH","EPOCH":"2022-07-07T21:17:24.537984","MEAN_ANOMALY":"99.4792","SEMIMAJOR_AXIS":"6955.160","RCS_SIZE":"LARGE","DECAY_DATE":null},{"DECAY_DATE":null,"SEMIMAJOR_AXIS":"6950.117","EPOCH":"2022-07-07T19:29:38.158944","CENTER_NAME":"EARTH","MEAN_ANOMALY":"99.2050","RCS_SIZE":"LARGE","INCLINATION":"70.0004","MEAN_MOTION":"14.98354396","OBJECT_TYPE":"PAYLOAD","PERIOD":"96.105","ARG_OF_PERICENTER":"260.8787","OBJECT_NAME":"STARLINK-3086","COUNTRY_CODE":"US","NORAD_CAT_ID":"49178","MEAN_MOTION_DDOT":"0.0000000000000","FILE":"3509430","TIME_SYSTEM":"UTC","TLE_LINE2":"2 49178  70.0004  75.2770 0002846 260.8787  99.2050 14.98354396 46285","BSTAR":"-0.00019849000000","ECCENTRICITY":"0.00028460","TLE_LINE1":"1 49178U 21082BA  22188.81224721 -.00002462  00000-0 -19849-3 0  9990","ELEMENT_SET_NO":"999","REV_AT_EPOCH":"4628","LAUNCH_DATE":"2021-09-14","PERIAPSIS":"570.004","CLASSIFICATION_TYPE":"U","RA_OF_ASC_NODE":"75.2770","REF_FRAME":"TEME","MEAN_ELEMENT_THEORY":"SGP4","OBJECT_ID":"2021-082BA","APOAPSIS":"573.960","MEAN_MOTION_DOT":"-0.00002462","GP_ID":"207607432","EPHEMERIS_TYPE":"0","SITE":"AFWTR"},{"OBJECT_TYPE":"PAYLOAD","MEAN_MOTION":"14.96716989","INCLINATION":"69.9977","RCS_SIZE":"LARGE","EPOCH":"2022-07-07T21:03:20.994048","MEAN_ANOMALY":"105.0634","CENTER_NAME":"EARTH","SEMIMAJOR_AXIS":"6955.185","DECAY_DATE":null,"TLE_LINE2":"2 49179  69.9977  34.5430 0003048 255.0187 105.0634 14.96716989 46134","TIME_SYSTEM":"UTC","FILE":"3509470","MEAN_MOTION_DDOT":"0.0000000000000","NORAD_CAT_ID":"49179","COUNTRY_CODE":"US","OBJECT_NAME":"STARLINK-3043","PERIOD":"96.211","ARG_OF_PERICENTER":"255.0187","RA_OF_ASC_NODE":"34.5430","CLASSIFICATION_TYPE":"U","PERIAPSIS":"574.931","LAUNCH_DATE":"2021-09-14","REV_AT_EPOCH":"4613","ELEMENT_SET_NO":"999","ECCENTRICITY":"0.00030480","TLE_LINE1":"1 49179U 21082BB  22188.87732632  .00001230  00000-0  11546-3 0  9998","BSTAR":"0.00011546000000","SITE":"AFWTR","EPHEMERIS_TYPE":"0","GP_ID":"207630555","MEAN_MOTION_DOT":"0.00001230","APOAPSIS":"579.170","OBJECT_ID":"2021-082BB","MEAN_ELEMENT_THEORY":"SGP4","REF_FRAME":"TEME"},{"PERIAPSIS":"575.204","CLASSIFICATION_TYPE":"U","RA_OF_ASC_NODE":"54.7215","BSTAR":"0.00014904000000","TLE_LINE1":"1 49180U 21082BC  22188.90207443  .00001615  00000-0  14904-3 0  9999","ECCENTRICITY":"0.00026730","REV_AT_EPOCH":"4681","ELEMENT_SET_NO":"999","LAUNCH_DATE":"2021-09-14","OBJECT_ID":"2021-082BC","GP_ID":"207630805","MEAN_MOTION_DOT":"0.00001615","APOAPSIS":"578.923","EPHEMERIS_TYPE":"0","SITE":"AFWTR","REF_FRAME":"TEME","MEAN_ELEMENT_THEORY":"SGP4","MEAN_MOTION":"14.96712781","INCLINATION":"69.9987","OBJECT_TYPE":"PAYLOAD","DECAY_DATE":null,"EPOCH":"2022-07-07T21:38:59.230752","MEAN_ANOMALY":"105.5685","CENTER_NAME":"EARTH","SEMIMAJOR_AXIS":"6955.199","RCS_SIZE":"LARGE","FILE":"3509470","MEAN_MOTION_DDOT":"0.0000000000000","TIME_SYSTEM":"UTC","TLE_LINE2":"2 49180  69.9987  54.7215 0002673 254.5178 105.5685 14.96712781 46811","PERIOD":"96.211","ARG_OF_PERICENTER":"254.5178","OBJECT_NAME":"STARLINK-3050","COUNTRY_CODE":"US","NORAD_CAT_ID":"49180"},{"BSTAR":"0.00002858700000","ECCENTRICITY":"0.00033380","TLE_LINE1":"1 49181U 21082BD  22188.85993856  .00000248  00000-0  28587-4 0  9998","REV_AT_EPOCH":"4632","ELEMENT_SET_NO":"999","LAUNCH_DATE":"2021-09-14","PERIAPSIS":"569.704","CLASSIFICATION_TYPE":"U","RA_OF_ASC_NODE":"75.1627","REF_FRAME":"TEME","MEAN_ELEMENT_THEORY":"SGP4","OBJECT_ID":"2021-082BD","APOAPSIS":"574.344","MEAN_MOTION_DOT":"0.00000248","GP_ID":"207631552","EPHEMERIS_TYPE":"0","SITE":"AFWTR","DECAY_DATE":null,"SEMIMAJOR_AXIS":"6950.159","EPOCH":"2022-07-07T20:38:18.691584","MEAN_ANOMALY":"96.2472","CENTER_NAME":"EARTH","RCS_SIZE":"LARGE","INCLINATION":"69.9996","MEAN_MOTION":"14.98340859","OBJECT_TYPE":"PAYLOAD","PERIOD":"96.106","ARG_OF_PERICENTER":"263.8307","OBJECT_NAME":"STARLINK-3059","COUNTRY_CODE":"US","NORAD_CAT_ID":"49181","MEAN_MOTION_DDOT":"0.0000000000000","FILE":"3509470","TIME_SYSTEM":"UTC","TLE_LINE2":"2 49181  69.9996  75.1627 0003338 263.8307  96.2472 14.98340859 46323"},{"REF_FRAME":"TEME","MEAN_ELEMENT_THEORY":"SGP4","OBJECT_ID":"2021-104A","GP_ID":"207602126","MEAN_MOTION_DOT":"0.00000034","APOAPSIS":"541.925","EPHEMERIS_TYPE":"0","SITE":"AFETR","BSTAR":"0.00002028500000","ECCENTRICITY":"0.00031400","TLE_LINE1":"1 49408U 21104A   22188.21798875  .00000034  00000-0  20285-4 0  9999","REV_AT_EPOCH":"3611","ELEMENT_SET_NO":"999","LAUNCH_DATE":"2021-11-13","PERIAPSIS":"537.580","CLASSIFICATION_TYPE":"U","RA_OF_ASC_NODE":"131.2297","ARG_OF_PERICENTER":"53.6952","PERIOD":"95.438","OBJECT_NAME":"STARLINK-3151","COUNTRY_CODE":"US","NORAD_CAT_ID":"49408","FILE":"3509293","MEAN_MOTION_DDOT":"0.0000000000000","TIME_SYSTEM":"UTC","TLE_LINE2":"2 49408  53.2165 131.2297 0003140  53.6952 306.4329 15.08837686 36112","DECAY_DATE":null,"EPOCH":"2022-07-07T05:13:54.228000","CENTER_NAME":"EARTH","MEAN_ANOMALY":"306.4329","SEMIMAJOR_AXIS":"6917.887","RCS_SIZE":"LARGE","MEAN_MOTION":"15.08837686","INCLINATION":"53.2165","OBJECT_TYPE":"PAYLOAD"},{"REF_FRAME":"TEME","MEAN_ELEMENT_THEORY":"SGP4","OBJECT_ID":"2021-104B","APOAPSIS":"541.763","MEAN_MOTION_DOT":"0.00000311","GP_ID":"207630830","EPHEMERIS_TYPE":"0","SITE":"AFETR","BSTAR":"0.00003765600000","TLE_LINE1":"1 49409U 21104B   22188.82886991  .00000311  00000-0  37656-4 0  9992","ECCENTRICITY":"0.00029240","REV_AT_EPOCH":"3621","ELEMENT_SET_NO":"999","LAUNCH_DATE":"2021-11-13","PERIAPSIS":"537.718","CLASSIFICATION_TYPE":"U","RA_OF_ASC_NODE":"128.4882","ARG_OF_PERICENTER":"59.7145","PERIOD":"95.437","OBJECT_NAME":"STARLINK-3075","COUNTRY_CODE":"US","NORAD_CAT_ID":"49409","MEAN_MOTION_DDOT":"0.0000000000000","FILE":"3509470","TIME_SYSTEM":"UTC","TLE_LINE2":"2 49409  53.2166 128.4882 0002924  59.7145 300.4136 15.08841593 36215","DECAY_DATE":null,"SEMIMAJOR_AXIS":"6917.876","MEAN_ANOMALY":"300.4136","EPOCH":"2022-07-07T19:53:34.360224","CENTER_NAME":"EARTH","RCS_SIZE":"LARGE","INCLINATION":"53.2166","MEAN_MOTION":"15.08841593","OBJECT_TYPE":"PAYLOAD"},{"MEAN_MOTION":"15.08845492","INCLINATION":"53.2176","OBJECT_TYPE":"PAYLOAD","DECAY_DATE":null,"CENTER_NAME":"EARTH","MEAN_ANOMALY":"301.1526","EPOCH":"2022-07-07T19:42:57.531744","SEMIMAJOR_AXIS":"6917.864","RCS_SIZE":"LARGE","FILE":"3509470","MEAN_MOTION_DDOT":"0.0000000000000","TIME_SYSTEM":"UTC","TLE_LINE2":"2 49410  53.2176 128.5283 0003819  58.9841 301.1526 15.08845492 36204","ARG_OF_PERICENTER":"58.9841","PERIOD":"95.437","OBJECT_NAME":"STARLINK-3147","COUNTRY_CODE":"US","NORAD_CAT_ID":"49410","PERIAPSIS":"537.087","CLASSIFICATION_TYPE":"U","RA_OF_ASC_NODE":"128.5283","BSTAR":"0.00004805900000","TLE_LINE1":"1 49410U 21104C   22188.82149921  .00000476  00000-0  48059-4 0  9990","ECCENTRICITY":"0.00038190","ELEMENT_SET_NO":"999","REV_AT_EPOCH":"3620","LAUNCH_DATE":"2021-11-13","OBJECT_ID":"2021-104C","MEAN_MOTION_DOT":"0.00000476","GP_ID":"207631577","APOAPSIS":"542.371","EPHEMERIS_TYPE":"0","SITE":"AFETR","REF_FRAME":"TEME","MEAN_ELEMENT_THEORY":"SGP4"},{"SEMIMAJOR_AXIS":"6917.898","EPOCH":"2022-07-07T19:33:41.784480","MEAN_ANOMALY":"295.9941","CENTER_NAME":"EARTH","RCS_SIZE":"LARGE","DECAY_DATE":null,"OBJECT_TYPE":"PAYLOAD","INCLINATION":"53.2178","MEAN_MOTION":"15.08834387","COUNTRY_CODE":"US","NORAD_CAT_ID":"49411","PERIOD":"95.438","ARG_OF_PERICENTER":"64.1337","OBJECT_NAME":"STARLINK-3162","TLE_LINE2":"2 49411  53.2178 118.5463 0002779  64.1337 295.9941 15.08834387 37426","MEAN_MOTION_DDOT":"0.0000000000000","FILE":"3509470","TIME_SYSTEM":"UTC","REV_AT_EPOCH":"3742","ELEMENT_SET_NO":"999","LAUNCH_DATE":"2021-11-13","BSTAR":"0.00003807700000","ECCENTRICITY":"0.00027790","TLE_LINE1":"1 49411U 21104D   22188.81506695  .00000317  00000-0  38077-4 0  9998","RA_OF_ASC_NODE":"118.5463","PERIAPSIS":"537.840","CLASSIFICATION_TYPE":"U","MEAN_ELEMENT_THEORY":"SGP4","REF_FRAME":"TEME","EPHEMERIS_TYPE":"0","SITE":"AFETR","OBJECT_ID":"2021-104D","APOAPSIS":"541.685","MEAN_MOTION_DOT":"0.00000317","GP_ID":"207632305"},{"RA_OF_ASC_NODE":"128.5037","PERIAPSIS":"537.308","CLASSIFICATION_TYPE":"U","REV_AT_EPOCH":"3621","ELEMENT_SET_NO":"999","LAUNCH_DATE":"2021-11-13","BSTAR":"0.00004280200000","ECCENTRICITY":"0.00035100","TLE_LINE1":"1 49412U 21104E   22188.82517982  .00000392  00000-0  42802-4 0  9995","EPHEMERIS_TYPE":"0","SITE":"AFETR","OBJECT_ID":"2021-104E","MEAN_MOTION_DOT":"0.00000392","GP_ID":"207631081","APOAPSIS":"542.164","MEAN_ELEMENT_THEORY":"SGP4","REF_FRAME":"TEME","OBJECT_TYPE":"PAYLOAD","MEAN_MOTION":"15.08843127","INCLINATION":"53.2166","CENTER_NAME":"EARTH","EPOCH":"2022-07-07T19:48:15.536448","MEAN_ANOMALY":"304.7960","SEMIMAJOR_AXIS":"6917.871","RCS_SIZE":"LARGE","DECAY_DATE":null,"TLE_LINE2":"2 49412  53.2166 128.5037 0003510  55.3363 304.7960 15.08843127 36215","FILE":"3509470","MEAN_MOTION_DDOT":"0.0000000000000","TIME_SYSTEM":"UTC","COUNTRY_CODE":"US","NORAD_CAT_ID":"49412","ARG_OF_PERICENTER":"55.3363","PERIOD":"95.437","OBJECT_NAME":"STARLINK-3144"}];
